      2.10          N: GNSS NAV DATA                        RINEX VERSION / TYPE
fic2rin                                 02/26/2024 00:17:41 PGM / RUN BY / DATE
                                                            END OF HEADER
8  24  2 25  1 59 44.0  .790087506175D-05  .316049408866D-10  .000000000000D+00
     .120000000000D+02 -.439687500000D+02  .473591155544D-08 -.867217506770D+00
    -.231340527534D-05  .938654982019D-02  .865384936333D-05  .515358975029D+04
     .718400000000D+04  .195577740669D-06  .257258659097D+01 -.223517417908D-07
     .954621477005D+00  .205343750000D+03  .327579264191D+00 -.813748181592D-08
    -.442875590403D-09  .100000000000D+01  .230300000000D+04  .000000000000D+00
     .240000000000D+01  .630000000000D+02  .512227416039D-08  .120000000000D+02
     .000000000000D+00  .400000000000D+01
2  24  2 25  2  0  0.0 -.480157788843D-03  .602540239925D-11  .000000000000D+00
     .850000000000D+02  .735937500000D+02  .428982154543D-08 -.547962013846D+00
     .371038913727D-05  .161744054640D-01  .112056732178D-04  .515371196938D+04
     .720000000000D+04 -.258907675743D-06 -.271511575458D+01 -.130385160446D-07
     .967802744869D+00  .174250000000D+03 -.123298340204D+01 -.808890836407D-08
     .288940606965D-09  .100000000000D+01  .230300000000D+04  .000000000000D+00
     .240000000000D+01  .000000000000D+00 -.176951289177D-07  .850000000000D+02
     .000000000000D+00  .400000000000D+01
1  24  2 25  2  0  0.0  .170984305441D-03  .170530256582D-11  .000000000000D+00
     .102000000000D+03  .100781250000D+03  .361015037725D-08  .308432651179D+01
     .497885048389D-05  .127732892288D-01  .110510736704D-04  .515400953102D+04
     .720000000000D+04  .502914190292D-07 -.261050913023D+01 -.173225998878D-06
     .990830703664D+00  .180156250000D+03  .998641015555D+00 -.738566478544D-08
     .268225458381D-09  .100000000000D+01  .230300000000D+04  .000000000000D+00
     .485000000000D+01  .630000000000D+02  .512227416039D-08  .102000000000D+03
     .000000000000D+00  .400000000000D+01
5  24  2 25  2  0  0.0 -.163074117154D-03 -.136424205266D-11  .000000000000D+00
     .590000000000D+02  .382500000000D+02  .477662753714D-08 -.517538511156D+00
     .210478901863D-05  .567112409044D-02  .222958624363D-05  .515356177330D+04
     .720000000000D+04 -.949949026108D-07 -.163205963623D+01  .242143869400D-07
     .969645382354D+00  .339187500000D+03  .123079664966D+01 -.854678457931D-08
     .102504269714D-09  .100000000000D+01  .230300000000D+04  .000000000000D+00
     .240000000000D+01  .000000000000D+00 -.111758708954D-07  .590000000000D+02
     .000000000000D+00  .400000000000D+01
12 24  2 25 12  0  0.0 -.481406692415D-03 -.363797880709D-11  .000000000000D+00
     .720000000000D+02  .171250000000D+02  .494056293713D-08  .842317110849D+00
     .767409801483D-06  .897704227827D-02  .428222119808D-05  .515369334030D+04
     .432000000000D+05 -.143423676491D-06  .162612178634D+01  .372529029846D-08
     .962640345423D+00  .299125000000D+03  .141782776807D+01 -.848499629130D-08
     .246438836595D-10  .100000000000D+01  .230300000000D+04  .000000000000D+00
     .240000000000D+01  .000000000000D+00 -.125728547573D-07  .720000000000D+02
     .360000000000D+05  .400000000000D+01
27 24  2 25 12  0  0.0 -.702822580934D-05 -.318323145621D-11  .000000000000D+00
     .107000000000D+03 -.512812500000D+02  .438268255632D-08 -.178895889784D+01
    -.270828604698D-05  .124426719267D-01  .854767858982D-05  .515367353821D+04
     .432000000000D+05  .154599547386D-06  .259795810942D+01 -.109896063805D-06
     .963610260109D+00  .213875000000D+03  .763506801249D+00 -.783675500373D-08
    -.464662212189D-09  .100000000000D+01  .230300000000D+04  .000000000000D+00
     .340000000000D+01  .000000000000D+00  .186264514923D-08  .107000000000D+03
     .360000000000D+05  .400000000000D+01
29 24  2 25 12  0  0.0 -.606230460107D-03  .909494701773D-12  .000000000000D+00
     .960000000000D+02 -.435000000000D+02  .419446043040D-08 -.186247530629D+01
    -.230222940445D-05  .264063582290D-02  .941567122936D-05  .515363793755D+04
     .432000000000D+05 -.689178705215D-07  .268030781618D+01  .149011611938D-07
     .972809905300D+00  .205218750000D+03  .249631095079D+01 -.785961309872D-08
    -.502163774280D-09  .100000000000D+01  .230300000000D+04  .000000000000D+00
     .240000000000D+01  .000000000000D+00 -.102445483208D-07  .960000000000D+02
     .360000000000D+05  .400000000000D+01
30 24  2 25 12  0  0.0 -.427938997746D-03  .511590769747D-11  .000000000000D+00
     .770000000000D+02  .130000000000D+02  .497020702907D-08  .143762116964D+01
     .877305865288D-06  .683448626660D-02  .121016055346D-04  .515369535255D+04
     .432000000000D+05 -.651925802231D-07  .512420653177D+00  .130385160446D-06
     .935780480453D+00  .136156250000D+03 -.252564597221D+01 -.827213028172D-08
     .323584907182D-09  .100000000000D+01  .230300000000D+04  .000000000000D+00
     .240000000000D+01  .000000000000D+00  .372529029846D-08  .770000000000D+02
     .360000000000D+05  .400000000000D+01
22 24  2 25 12  0  0.0  .255238264799D-04 -.613908923697D-11  .000000000000D+00
     .960000000000D+02  .137500000000D+02  .505521056981D-08 -.133528627420D+01
     .797212123871D-06  .144977216842D-01  .424683094025D-05  .515370777512D+04
     .432000000000D+05 -.348314642906D-06  .164740306045D+01  .186264514923D-07
     .961472920704D+00  .300437500000D+03 -.114128818253D+01 -.858535761461D-08
     .739316509786D-10  .100000000000D+01  .230300000000D+04  .000000000000D+00
     .340000000000D+01  .000000000000D+00 -.111758708954D-07  .960000000000D+02
     .360000000000D+05  .400000000000D+01
21 24  2 25 12  0  0.0  .133648980409D-03 -.136424205266D-11  .000000000000D+00
     .870000000000D+02  .944375000000D+02  .396730811145D-08 -.195597140576D+01
     .488385558128D-05  .253217783757D-01  .127237290144D-04  .515372975731D+04
     .432000000000D+05 -.566244125366D-06 -.272203658887D+01  .111758708954D-06
     .962086152556D+00  .143750000000D+03 -.620857940220D+00 -.782604027170D-08
     .266796827444D-09  .100000000000D+01  .230300000000D+04  .000000000000D+00
     .240000000000D+01  .000000000000D+00 -.102445483208D-07  .870000000000D+02
     .360000000000D+05  .400000000000D+01
26 24  2 25 12  0  0.0  .186419580132D-03 -.420641299570D-11  .000000000000D+00
     .930000000000D+02  .313750000000D+02  .571880963995D-08 -.623584279703D-01
     .170804560184D-05  .883046502713D-02  .380165874958D-05  .515358556747D+04
     .432000000000D+05  .819563865662D-07  .147974048440D+01  .912696123123D-07
     .931333635201D+00  .287468750000D+03  .533634600869D+00 -.888537011133D-08
     .163221084528D-09  .100000000000D+01  .230300000000D+04  .000000000000D+00
     .340000000000D+01  .000000000000D+00  .698491930962D-08  .930000000000D+02
     .360000000000D+05  .400000000000D+01
15 24  2 25 12  0  0.0  .131354201585D-03  .397903932026D-11  .000000000000D+00
     .610000000000D+02 -.104468750000D+03  .520200239857D-08 -.285318635935D+01
    -.557489693165D-05  .154574678745D-01  .534765422344D-05  .515361579323D+04
     .432000000000D+05  .262632966042D-06 -.686774395619D+00 -.875443220139D-07
     .934723122764D+00  .258625000000D+03  .129189172790D+01 -.829748848084D-08
    -.268939773850D-09  .100000000000D+01  .230300000000D+04  .000000000000D+00
     .240000000000D+01  .000000000000D+00 -.102445483208D-07  .610000000000D+02
     .360000000000D+05  .400000000000D+01
25 24  2 25 12  0  0.0  .489628873765D-03  .113686837722D-11  .000000000000D+00
     .710000000000D+02  .279062500000D+02  .524307553800D-08  .744494826146D+00
     .149942934513D-05  .118307261728D-01  .440329313278D-05  .515360220718D+04
     .432000000000D+05 -.130385160446D-06  .154055558646D+01  .875443220139D-07
     .950539670776D+00  .289875000000D+03  .107795475769D+01 -.869000483072D-08
     .471448209139D-10  .100000000000D+01  .230300000000D+04  .000000000000D+00
     .240000000000D+01  .000000000000D+00  .558793544769D-08  .710000000000D+02
     .360000000000D+05  .400000000000D+01
13 24  2 25 12  0  0.0  .628740061074D-03  .352429196937D-11  .000000000000D+00
     .680000000000D+02 -.993750000000D+02  .423017620382D-08 -.218371392219D+01
    -.522285699844D-05  .781854090746D-02  .874884426594D-05  .515366186523D+04
     .432000000000D+05  .838190317154D-07 -.396793016982D+00 -.968575477600D-07
     .971383171037D+00  .214843750000D+03  .935577134840D+00 -.782746890264D-08
    -.245367363393D-09  .100000000000D+01  .230300000000D+04  .000000000000D+00
     .240000000000D+01  .000000000000D+00 -.111758708954D-07  .680000000000D+02
     .360000000000D+05  .400000000000D+01
19 24  2 25 12  0  0.0  .445568002760D-03  .534328137292D-11  .000000000000D+00
     .780000000000D+02 -.524375000000D+02  .432375153018D-08  .186084765486D+00
    -.288896262646D-05  .951696769334D-02  .978261232376D-05  .515368706703D+04
     .432000000000D+05  .139698386192D-06  .270989726978D+01 -.154599547386D-06
     .969610781415D+00  .200750000000D+03  .248529224304D+01 -.806390732268D-08
    -.619311511096D-09  .100000000000D+01  .230300000000D+04  .000000000000D+00
     .240000000000D+01  .000000000000D+00 -.153668224812D-07  .780000000000D+02
     .360000000000D+05  .400000000000D+01
14 24  2 25 12  0  0.0  .334938988090D-03  .989075488178D-11  .000000000000D+00
     .137000000000D+03  .237187500000D+02  .536950937590D-08  .859089586587D+00
     .127404928207D-05  .401782779954D-02  .374019145966D-05  .515368358994D+04
     .432000000000D+05  .204890966415D-07  .158309514931D+01  .931322574615D-08
     .945984104378D+00  .297093750000D+03 -.296147640222D+01 -.864178853661D-08
     .535736601294D-10  .100000000000D+01  .230300000000D+04  .000000000000D+00
     .240000000000D+01  .000000000000D+00 -.791624188423D-08  .137000000000D+03
     .360000000000D+05  .400000000000D+01
